OBJECT_NAME,OBJECT_ID,EPOCH,MEAN_MOTION,ECCENTRICITY,INCLINATION,RA_OF_ASC_NODE,ARG_OF_PERICENTER,MEAN_ANOMALY,EPHEMERIS_TYPE,CLASSIFICATION_TYPE,NORAD_CAT_ID,ELEMENT_SET_NO,REV_AT_EPOCH,BSTAR,MEAN_MOTION_DOT,MEAN_MOTION_DDOT
COSMOS 2501 (702K),2014-075A,2024-07-06T20:12:39.740832,2.13101503,.0021013,63.6220,214.9927,211.4060,148.5323,0,U,40315,999,7471,0,.59E-6,0
GPS BIIF-9  (PRN 26),2015-013A,2024-07-07T01:56:55.378464,2.00564362,.0088093,53.3373,233.5729,29.7608,330.8203,0,U,40534,999,6758,0,.31E-6,0
GSAT0203 (PRN E26),2015-017A,2024-07-06T20:38:03.724512,1.70476147,.000163,56.9252,0.9325,246.0658,113.9215,0,U,40544,999,5775,0,-.101E-5,0
GSAT0204 (PRN E22),2015-017B,2024-07-05T22:34:48.557856,1.70475764,.0001971,56.9310,0.9730,210.0903,149.9044,0,U,40545,999,5774,0,-.101E-5,0
IRNSS-1D,2015-018A,2024-07-06T12:33:54.067680,1.00279858,.0021775,27.4472,252.3734,193.8102,139.0399,0,U,40547,999,3385,0,-.264E-5,0
BEIDOU-3S IGSO-1S (C31),2015-019A,2024-07-07T18:47:40.053408,1.00300923,.0035698,50.5342,303.9491,193.2243,162.6097,0,U,40549,999,3395,0,-.172E-5,0
GPS BIIF-10 (PRN 08),2015-033A,2024-07-07T05:49:57.432576,2.00566035,.0094078,54.5780,296.2377,19.7804,340.6086,0,U,40730,999,6575,0,-.62E-6,0
BEIDOU-3S M2S (C58),2015-037A,2024-07-06T22:19:37.076736,1.86233292,.000925,55.4635,326.3644,245.2732,114.6197,0,U,40748,999,6089,0,-.106E-5,0
BEIDOU-3S M1S (C57),2015-037B,2024-07-05T14:09:52.666560,1.86227603,.0002626,55.4670,326.3960,348.4370,11.5426,0,U,40749,999,6086,0,-.11E-5,0
GSAT0205 (PRN E24),2015-045A,2024-07-03T22:47:00.682080,1.70473894,.0002869,55.2098,241.3070,18.6742,341.4317,0,U,40889,999,5485,0,.4E-6,0
GSAT0206 (PRN E30),2015-045B,2024-07-07T02:28:09.454080,1.70473934,.0001167,55.2073,241.2153,354.8047,5.2893,0,U,40890,999,5493,0,.3E-6,0
BEIDOU-3S IGSO-2S (C56),2015-053A,2024-07-06T14:56:05.206272,1.00258192,.0053453,50.3255,267.1784,190.7660,145.6164,0,U,40938,999,3222,0,-.108E-5,0
GPS BIIF-11 (PRN 10),2015-062A,2024-07-06T19:17:31.746624,2.00562548,.0095543,56.4175,58.3279,224.8035,134.4851,0,U,41019,999,6358,0,-.65E-6,0
GSAT-15 (GAGAN/PRN 139),2015-065A,2024-07-07T03:20:18.585600,1.00272515,.0003366,0.0138,92.5678,2.4459,334.1391,0,U,41028,999,3168,0,-.262E-5,0
GSAT0209 (PRN E09),2015-079A,2024-07-06T16:27:46.783296,1.70473923,.0004681,55.4334,120.7795,322.8191,37.1117,0,U,41174,999,5266,0,-.23E-6,0
GSAT0208 (PRN E08),2015-079B,2024-07-07T11:48:55.914912,1.70473961,.0004193,55.4321,120.7551,321.4885,38.4505,0,U,41175,999,5325,0,-.18E-6,0
IRNSS-1E,2016-003A,2024-07-05T18:51:06.230592,1.00266511,.0018826,31.6723,73.2023,180.3464,65.1030,0,U,41241,999,3094,0,-.324E-5,0
GPS BIIF-12 (PRN 32),2016-007A,2024-07-06T09:15:18.863136,2.00561008,.0079879,55.1332,117.6882,238.9231,120.2702,0,U,41328,999,6158,0,-.33E-6,0
COSMOS 2514 (751),2016-008A,2024-07-05T21:15:52.050240,2.13102677,.0010415,65.3985,337.3092,200.5478,159.3999,0,U,41330,999,6546,0,-.86E-6,0
IRNSS-1F,2016-015A,2024-07-07T13:21:03.322944,1.00272940,.0017975,3.6171,117.0238,183.0583,218.6055,0,U,41384,999,3055,0,.153E-5,0
BEIDOU-2 IGSO-6 (C13),2016-021A,2024-07-08T01:40:12.756576,1.00267431,.0047899,59.2075,45.1342,222.0624,139.6299,0,U,41434,999,3036,0,-.153E-5,0
IRNSS-1G,2016-027A,2024-07-07T13:48:40.245984,1.00274082,.0006756,3.4879,118.2390,339.5077,164.9374,0,U,41469,999,3006,0,-.341E-5,0
GSAT0211 (PRN E02),2016-030A,2024-07-05T20:31:48.395136,1.70473792,.0003115,55.3561,241.2631,303.3769,56.6911,0,U,41549,999,5052,0,.35E-6,0
GSAT0210 (PRN E01),2016-030B,2024-07-02T00:58:27.796800,1.70473957,.000309,55.3575,241.3690,263.9154,96.1363,0,U,41550,999,5045,0,.38E-6,0
BEIDOU-2 G7 (C03),2016-037A,2024-07-07T19:09:22.574880,1.00278389,.0008586,1.9558,69.8978,2.3476,251.7474,0,U,41586,999,2966,0,-.358E-5,0
E 117 W B (WAAS/PRN 131),2016-038B,2024-07-07T16:04:23.428704,1.00268422,.0000183,0.0038,192.9656,260.9099,316.3362,0,U,41589,999,2959,0,-.15E-6,0
GSAT0207 (PRN E07),2016-069A,2024-07-03T11:02:28.057344,1.70473881,.0004999,55.0968,120.8655,306.8358,53.0708,0,U,41859,999,4723,0,-.27E-6,0
GSAT0212 (PRN E03),2016-069B,2024-07-07T10:05:25.420704,1.70474109,.0003837,55.0956,120.7521,335.1806,24.7690,0,U,41860,999,4755,0,-.19E-6,0
GSAT0213 (PRN E04),2016-069C,2024-07-05T10:37:23.101536,1.70472777,.0004804,55.0974,120.8136,289.8858,70.0186,0,U,41861,999,4738,0,-.28E-6,0
GSAT0214 (PRN E05),2016-069D,2024-07-06T18:15:50.736960,1.70474113,.0003918,55.0967,120.7707,294.7420,65.1808,0,U,41862,999,4753,0,-.23E-6,0
SES-15 (WAAS/PRN 133),2017-026A,2024-07-07T17:44:02.051232,1.00269184,.0000137,0.0201,34.8418,41.3392,346.8497,0,U,42709,999,2707,0,.57E-6,0
